STARLINK-3833           
1 52578U 22051AU  26068.40234779 -.00002004  00000+0 -10785-3 0  9996
2 52578  53.2173 135.4080 0001430 105.2509 254.8641 15.08843368211337
DISKSAT B               
1 67220U 25305B   26068.81497770  .00012481  00000+0  82401-3 0  9990
2 67220  45.0018 250.2098 0003783 311.4052  48.6498 15.07484556 12311
